[{"OBJECT_NAME":"TIRSAT","OBJECT_ID":"2024-032C","EPOCH":"2026-03-09T22:53:26.104704","MEAN_MOTION":14.72202351,"ECCENTRICITY":0.00062938,"INCLINATION":98.0088,"RA_OF_ASC_NODE":128.8335,"ARG_OF_PERICENTER":103.9805,"MEAN_ANOMALY":256.2103,"EPHEMERIS_TYPE":0,"CLASSIFICATION_TYPE":"U","NORAD_CAT_ID":58989,"ELEMENT_SET_NO":999,"REV_AT_EPOCH":11048,"BSTAR":0.00030948624,"MEAN_MOTION_DOT":1.903e-5,"MEAN_MOTION_DDOT":0},{"OBJECT_NAME":"FENGYUN 1C DEB","OBJECT_ID":"1999-025EPA","EPOCH":"2026-03-08T09:41:28.506624","MEAN_MOTION":14.82661962,"ECCENTRICITY":0.00545777,"INCLINATION":99.0797,"RA_OF_ASC_NODE":312.9561,"ARG_OF_PERICENTER":72.2995,"MEAN_ANOMALY":288.4163,"EPHEMERIS_TYPE":0,"CLASSIFICATION_TYPE":"U","NORAD_CAT_ID":37925,"ELEMENT_SET_NO":999,"REV_AT_EPOCH":66951,"BSTAR":0.0023039613,"MEAN_MOTION_DOT":0.00019041,"MEAN_MOTION_DDOT":0}]
